#dP2022  3 23 18  0  0.00000000      96 __u+U ITR00 EXT  IAC
## 2202 324000.00000000   900.00000000 59661 0.7500000000000
+  116   C06C07C08C09C10C11C12C13C14C16C19C20C21C22C23C24C25
+        C26C27C28C29C30C32C33C34C35C36C37C38C39C40C41C42C43
+        C44C45C46E01E02E03E04E05E07E08E10E11E12E13E14E15E18
+        E19E21E24E25E26E27E30E31E33E34E36G01G02G03G04G05G06
+        G07G08G09G10G11G12G13G14G15G16G17G18G19G20G21G22G23
+        G24G25G26G27G28G29G30G31G32J01J02J03R01R02R03R04R05
+        R07R08R09R12R13R14R15R17R18R19R20R21R22R24  0  0  0
++         0  0  0  0  0  0  0  0  0  0  0  0  0  0  0  0  0
++         0  0  0  0  0  0  0  0  0  0  0  0  0  0  0  0  0
++         0  0  0  0  0  0  0  0  0  0  0  0  0  0  0  0  0
++         0  0  0  0  0  0  0  0  0  0  0  0  0  0  0  0  0
++         0  0  0  0  0  0  0  0  0  0  0  0  0  0  0  0  0
++         0  0  0  0  0  0  0  0  0  0  0  0  0  0  0  0  0
++         0  0  0  0  0  0  0  0  0  0  0  0  0  0  0  0  0
%c M  cc GPS ccc cccc cccc cccc cccc ccccc ccccc ccccc ccccc
%c cc cc ccc ccc cccc cccc cccc cccc ccccc ccccc ccccc ccccc
%f  0.0000000  0.000000000  0.00000000000  0.000000000000000
%f  0.0000000  0.000000000  0.00000000000  0.000000000000000
%i    0    0    0    0      0      0      0      0         0
%i    0    0    0    0      0      0      0      0         0
/* IAC                                ULTRA-RAPID PREDICTION
/* S/V CLOCKS ARE ALIGNED TO GNSS TIME                      
/* G:C1WC2W R:C1PC2P E:C1XC5X C:C2IC6I J:C1CC2S             
/* PCV:IGS14_2196 OL/AL:FES2004  NONE     YN ORB:CoN CLK:CoN
*  2022 03 24  7 30  0.00000000
PC06  -2407.763689  34072.340942 -24576.425889   -334.214319
PC07 -14254.474426  25849.835202  30061.062937     96.015316
PC08 -17471.719574  37695.831721  -7589.729023    216.207184
PC09   6009.144702  38579.953451 -14952.092336   -632.518497
PC10  -4812.703469  27000.217492  32221.690252    138.157542
PC11  11174.654185  25414.998104   3007.284426    248.387318
PC12  -2276.175952  21010.742735  18261.080962   -633.823626
PC13 -10185.373842  37896.028995 -15648.200727    -80.847378
PC14  10414.723818  14765.195067 -21254.701273    452.523970
PC16  -3134.453244  32866.155681 -25910.603847    107.697530
PC19 -19903.021533 -11175.459510  16072.768319    884.013868
PC20  -1147.760401 -15812.179677  22984.871315   -855.278409
PC21 -19494.781802  11196.760012 -16495.451138   -908.899909
PC22 -27887.107135     94.036169   -471.756184   -962.496176
PC23  19149.382762  -4286.118404  19838.121648   -939.794179
PC24  -6336.489998  25142.969506  10337.481233   -948.284834
PC25  10197.796764  13914.445585  21929.394658   -761.349411
PC26 -16797.423036  21588.729469  -5635.715937    761.734130
PC27   9537.495109 -14290.234575 -22014.666940    696.775200
PC28  18554.200733   4695.781316 -20306.917765     47.072945
PC29 -17542.003752 -20743.565734   6392.856835    531.805138
PC30  -5470.136772 -24823.163109 -11555.725994    495.699953
PC32  19452.744770 -11363.700894  16496.979680   -966.695850
PC33  19948.797024  11082.041252 -16061.828898   -970.134361
PC34   6173.995040  25007.192042  10688.966561   -441.411046
PC35 -18992.916575  -4954.943323  19841.895637    196.363990
PC36  -9511.739392 -14569.762510 -21797.609372   -955.700264
PC37  17718.806487 -20481.687438   6690.071778   -935.616056
PC38 -20711.198821  36809.855177   -333.083871    220.141173
PC39  -7142.889880  28450.496887 -30202.314403     34.882401
PC40 -19571.814775  19365.948490  31858.514473    254.890880
PC41  27906.083459     40.091916    116.504342   -963.111274
PC42     49.736663  15842.910370 -22923.162084   -941.453829
PC43  17230.946788  21163.211233  -5766.220040   -934.219539
PC44  -9309.386892  14450.131641  21964.131677    604.875236
PC45 -19130.120873   4641.938068 -19792.212722    712.849410
PC46   5173.606374 -24813.230528 -11632.744578   -234.257819
PE01  -2443.022376 -17320.424031 -23881.396035   -602.782693
PE02   2579.235726  17259.916832  23904.535133    288.266371
PE03  13910.183983  20807.107463 -15809.372613   -540.616933
PE04 -26158.018849 -13778.026562  -1459.126468   -991.259135
PE05  -6776.348471  15738.545827 -24129.916926   -197.462332
PE07  23218.301667  -1596.748189  18303.566615   -651.458597
PE08  26307.490571  13455.841251   1832.803320   -500.390256
PE10 -16024.660944  -2432.585416  24762.834737   -502.364178
PE11 -15171.179534   9697.429295  23481.832650   4149.562622
PE12 -14412.309839 -13640.266190  21972.557057   4698.065012
PE13  15214.150118  -9003.313049 -23738.683549    427.516686
PE14  22033.869836  19777.020933    840.274621  -1789.161524
PE15  14337.648001  13731.178069 -21944.641017    755.924591
PE18 -11028.906378 -22323.451818 -11350.149896  -1647.615115
PE19 -11598.291353 -20800.238490  17590.549974  -1834.824063
PE21  16221.679802 -20419.369540 -14000.660040   -724.343359
PE24 -26915.221233  10973.883462  -5695.441619   -522.382919
PE25 -16462.483070  20385.440904  13779.849213   -567.896555
PE26   6739.691215 -26785.876405 -10645.676305   -948.416857
PE27  26694.945315 -11952.721344   4495.771428   -260.202046
PE30  20666.270705   4436.428810  20700.289367   -373.693121
PE31 -21378.610801  -3463.323746 -20180.052996   -493.996593
PE33  -5013.231774 -28273.772014   7224.958715   -458.277826
PE34   5188.087195  28182.634321  -7420.014696   -508.390111
PE36  -7159.438693  26272.191406  11591.225660   -349.686955
PG01 -13103.795665  15739.876979  16423.381437    401.502703
PG02  14052.127311   6955.237873 -20760.828634   -652.588897
PG03 -22415.275973  13228.189652  -5086.817873   -177.165639
PG04 -14724.018941   6926.177806 -20999.753833   -181.398286
PG05  24355.840790  -3447.471740 -10372.627382    -75.783737
PG06   6279.232007  21822.632731 -13643.921332    241.945273
PG07  -5246.693138  25578.896013  -2664.284342    317.515762
PG08 -21357.762071  -1884.905384  15870.121348    -61.078923
PG09  -3975.972640  15641.829707 -21155.064475   -348.024469
PG10  -2938.186873 -14953.849773  21874.730047   -356.491652
PG11  13578.184276   8238.576271 -21295.790900    -54.861885
PG12  24474.718516  -9942.101816  -2217.614972   -189.608214
PG13  21632.330552  11122.935438  10709.603819    282.098552
PG14   1314.352310  15718.123492  21355.085700    -96.752595
PG15  21363.882254  -1073.755703  15532.090992    -74.399468
PG16 -23089.273927  -2400.538572 -13590.318503   -484.167214
PG17  10534.286194  20736.438217  13209.119000    591.299832
PG18   5948.554391 -25623.639765  -3242.420939    212.584562
PG19  16220.390837  20352.622600   5528.335589    135.104304
PG20  19615.646528   2861.377944 -17560.305892    516.163111
PG21 -15433.132550   4349.867809  21741.745720    159.740411
PG22 -17884.816858 -19492.279065   3710.188321    232.318174
PG23   9287.212436 -17544.952117  17589.650954     -9.395648
PG24  14268.814903 -11854.905771  18561.329670    264.974348
PG25  15684.064698 -16884.255953 -13243.033888    302.539780
PG26 -14486.014207  -9500.783217 -20292.935096    193.240039
PG27 -23030.571081 -11950.881422   6381.836743    163.828198
PG28  10055.670827  12447.009039  21681.351555    375.184237
PG29   6463.406103 -13751.914694 -21828.102861   -494.990751
PG30    310.279557  25885.976428   5396.305665   -520.333264
PG31  -8180.776723 -19768.302561 -15560.129394   -170.318213
PG32 -14461.119903 -19891.617414  10409.636205    -90.934100
PJ01 -30624.559798  13440.634385 -21140.284787    181.323096
PJ02 -30471.798031  28837.303837   9475.415761     -2.191636
PJ03 -25720.146857  24117.683593  28184.070842     -1.153842
PR01  24180.362195    197.960460   8149.402146      7.359250
PR02   9897.206081  -8530.292160  21942.467345    513.427651
PR03  -9092.463330 -11825.444110  20756.325349     53.646435
PR04 -22681.112994  -8432.405432   8117.475310    133.353120
PR05 -23854.174581   -545.893159  -9035.422897     89.922909
PR07   9771.878719  11773.381811 -20351.991762     33.022678
PR08  22776.692139   8295.724752  -7840.715484    -64.220065
PR09 -14504.071076  20520.206043   4173.445136     45.993633
PR12  18416.568644 -11672.998894  13239.749759     17.572744
PR13  15206.708077 -20259.918584  -2998.125311    -19.866248
PR14   2578.907911 -17021.645860 -18821.558200     75.742270
PR15 -11005.922898  -3896.982979 -22665.327056     97.331491
PR17  -7126.424417 -24370.743920  -2261.477175    512.017711
PR18 -12337.206013 -17441.893437  13997.901482    111.302856
PR19 -11320.500806  -2736.082101  22694.117174   -182.724717
PR20  -3305.347616  17381.618078  18359.151075    -67.296327
PR21   7684.680354  24320.995299    785.959235   -287.772886
PR22  12294.400974  16721.622996 -14768.301913   -172.520963
PR24   2836.885967 -18123.138759 -17705.863942     85.827408
EOF
